{"type": "FeatureCollection", "features": [ {"type": "Feature", "properties": {"norad_id": 39122, "name": "EUTELSAT 117 WEST A", "group": "eutelsat", "lat": -0.0314823569227058, "lon": -166.19626019010158, "alt_km": 35784.5363419592, "timestamp": "2025-12-21T14:40:47.582089+00:00", "meta": {"OBJECT_NAME": "EUTELSAT 117 WEST A", "OBJECT_ID": "2013-012A", "EPOCH": "2025-12-21T04:31:22.898208", "MEAN_MOTION": 1.00270307, "ECCENTRICITY": 0.00025965, "INCLINATION": 0.0286, "RA_OF_ASC_NODE": 304.2421, "ARG_OF_PERICENTER": 329.3971, "MEAN_ANOMALY": 127.4345, "EPHEMERIS_TYPE": 0, "CLASSIFICATION_TYPE": "U", "NORAD_CAT_ID": 39122, "ELEMENT_SET_NO": 999, "REV_AT_EPOCH": 4664, "BSTAR": 0, "MEAN_MOTION_DOT": 1e-07, "MEAN_MOTION_DDOT": 0}, "tle": {"line1": "1 39122U 13012A   25355.18845947  .00000010  00000+0  00000+0 0  9999", "line2": "2 39122   0.0286 304.2421 0002596 329.3971 127.4345  1.00270307 46643"}}, "geometry": {"type": "Point", "coordinates": [-166.19626019010158, -0.0314823569227058]}}, {"type": "Feature", "properties": {"norad_id": 39163, "name": "EUTELSAT 7B", "group": "eutelsat", "lat": -0.0629933420054168, "lon": -42.390622808081574, "alt_km": 35767.877397186436, "timestamp": "2025-12-21T14:40:47.582101+00:00", "meta": {"OBJECT_NAME": "EUTELSAT 7B", "OBJECT_ID": "2013-022A", "EPOCH": "2025-12-21T03:32:38.808096", "MEAN_MOTION": 1.0027093, "ECCENTRICITY": 0.00043872, "INCLINATION": 0.0651, "RA_OF_ASC_NODE": 0.6593, "ARG_OF_PERICENTER": 321.5749, "MEAN_ANOMALY": 187.8946, "EPHEMERIS_TYPE": 0, "CLASSIFICATION_TYPE": "U", "NORAD_CAT_ID": 39163, "ELEMENT_SET_NO": 999, "REV_AT_EPOCH": 4616, "BSTAR": 0, "MEAN_MOTION_DOT": 7.1e-07, "MEAN_MOTION_DDOT": 0}, "tle": {"line1": "1 39163U 13022A   25355.14767139  .00000071  00000+0  00000+0 0  9994", "line2": "2 39163   0.0651   0.6593 0004387 321.5749 187.8946  1.00270930 46164"}}, "geometry": {"type": "Point", "coordinates": [-42.390622808081574, -0.0629933420054168]}}, {"type": "Feature", "properties": {"norad_id": 39612, "name": "EXPRESS-AT1", "group": "eutelsat", "lat": 0.017975439001370414, "lon": 6.614767991235288, "alt_km": 35788.427344193544, "timestamp": "2025-12-21T14:40:47.582114+00:00", "meta": {"OBJECT_NAME": "EXPRESS-AT1", "OBJECT_ID": "2014-010A", "EPOCH": "2025-12-21T03:11:36.644064", "MEAN_MOTION": 1.00273021, "ECCENTRICITY": 8.601e-05, "INCLINATION": 0.0169, "RA_OF_ASC_NODE": 305.1797, "ARG_OF_PERICENTER": 200.8222, "MEAN_ANOMALY": 47.858, "EPHEMERIS_TYPE": 0, "CLASSIFICATION_TYPE": "U", "NORAD_CAT_ID": 39612, "ELEMENT_SET_NO": 999, "REV_AT_EPOCH": 4303, "BSTAR": 0, "MEAN_MOTION_DOT": 1.01e-06, "MEAN_MOTION_DDOT": 0}, "tle": {"line1": "1 39612U 14010A   25355.13306301  .00000101  00000+0  00000+0 0  9994", "line2": "2 39612   0.0169 305.1797 0000860 200.8222  47.8580  1.00273021 43039"}}, "geometry": {"type": "Point", "coordinates": [6.614767991235288, 0.017975439001370414]}}, {"type": "Feature", "properties": {"norad_id": 39613, "name": "EXPRESS-AT2", "group": "eutelsat", "lat": 0.03839898655892643, "lon": 90.47668137664282, "alt_km": 35790.45823530933, "timestamp": "2025-12-21T14:40:47.582125+00:00", "meta": {"OBJECT_NAME": "EXPRESS-AT2", "OBJECT_ID": "2014-010B", "EPOCH": "2025-12-21T03:35:19.372992", "MEAN_MOTION": 1.00270951, "ECCENTRICITY": 0.00010602, "INCLINATION": 0.019, "RA_OF_ASC_NODE": 327.4725, "ARG_OF_PERICENTER": 327.2965, "MEAN_ANOMALY": 348.8895, "EPHEMERIS_TYPE": 0, "CLASSIFICATION_TYPE": "U", "NORAD_CAT_ID": 39613, "ELEMENT_SET_NO": 999, "REV_AT_EPOCH": 4271, "BSTAR": 0, "MEAN_MOTION_DOT": -2.58e-06, "MEAN_MOTION_DDOT": 0}, "tle": {"line1": "1 39613U 14010B   25355.14952978 -.00000258  00000+0  00000+0 0  9997", "line2": "2 39613   0.0190 327.4725 0001060 327.2965 348.8895  1.00270951 42719"}}, "geometry": {"type": "Point", "coordinates": [90.47668137664282, 0.03839898655892643]}}, {"type": "Feature", "properties": {"norad_id": 39773, "name": "EUTELSAT 3B", "group": "eutelsat", "lat": -0.06981965454298554, "lon": -46.23672482805822, "alt_km": 35782.810813985016, "timestamp": "2025-12-21T14:40:47.582137+00:00", "meta": {"OBJECT_NAME": "EUTELSAT 3B", "OBJECT_ID": "2014-030A", "EPOCH": "2025-12-21T02:56:23.102304", "MEAN_MOTION": 1.00272656, "ECCENTRICITY": 0.00041547, "INCLINATION": 0.061, "RA_OF_ASC_NODE": 7.8675, "ARG_OF_PERICENTER": 225.4448, "MEAN_ANOMALY": 263.8264, "EPHEMERIS_TYPE": 0, "CLASSIFICATION_TYPE": "U", "NORAD_CAT_ID": 39773, "ELEMENT_SET_NO": 999, "REV_AT_EPOCH": 4228, "BSTAR": 0, "MEAN_MOTION_DOT": 4.3e-07, "MEAN_MOTION_DDOT": 0}, "tle": {"line1": "1 39773U 14030A   25355.12248961  .00000043  00000+0  00000+0 0  9995", "line2": "2 39773   0.0610   7.8675 0004154 225.4448 263.8264  1.00272656 42280"}}, "geometry": {"type": "Point", "coordinates": [-46.23672482805822, -0.06981965454298554]}}, {"type": "Feature", "properties": {"norad_id": 40425, "name": "EUTELSAT 115 WEST B", "group": "eutelsat", "lat": 0.0022484107957656896, "lon": -164.29031518060086, "alt_km": 35787.78414704014, "timestamp": "2025-12-21T14:40:47.582149+00:00", "meta": {"OBJECT_NAME": "EUTELSAT 115 WEST B", "OBJECT_ID": "2015-010B", "EPOCH": "2025-12-21T04:29:33.223776", "MEAN_MOTION": 1.00269059, "ECCENTRICITY": 3.333e-05, "INCLINATION": 0.0159, "RA_OF_ASC_NODE": 149.3637, "ARG_OF_PERICENTER": 179.3265, "MEAN_ANOMALY": 73.8064, "EPHEMERIS_TYPE": 0, "CLASSIFICATION_TYPE": "U", "NORAD_CAT_ID": 40425, "ELEMENT_SET_NO": 999, "REV_AT_EPOCH": 3960, "BSTAR": 0, "MEAN_MOTION_DOT": -2e-08, "MEAN_MOTION_DDOT": 0}, "tle": {"line1": "1 40425U 15010B   25355.18719009 -.00000002  00000+0  00000+0 0  9998", "line2": "2 40425   0.0159 149.3637 0000333 179.3265  73.8064  1.00269059 39605"}}, "geometry": {"type": "Point", "coordinates": [-164.29031518060086, 0.0022484107957656896]}}, {"type": "Feature", "properties": {"norad_id": 40875, "name": "EUTELSAT 8 WEST B", "group": "eutelsat", "lat": -0.0762922474183946, "lon": -57.35290496534326, "alt_km": 35770.889434043034, "timestamp": "2025-12-21T14:40:47.582161+00:00", "meta": {"OBJECT_NAME": "EUTELSAT 8 WEST B", "OBJECT_ID": "2015-039B", "EPOCH": "2025-12-21T06:18:38.950848", "MEAN_MOTION": 1.00271099, "ECCENTRICITY": 0.00042622, "INCLINATION": 0.0634, "RA_OF_ASC_NODE": 0.0067, "ARG_OF_PERICENTER": 271.0647, "MEAN_ANOMALY": 265.6794, "EPHEMERIS_TYPE": 0, "CLASSIFICATION_TYPE": "U", "NORAD_CAT_ID": 40875, "ELEMENT_SET_NO": 999, "REV_AT_EPOCH": 3787, "BSTAR": 0, "MEAN_MOTION_DOT": -4.3e-07, "MEAN_MOTION_DDOT": 0}, "tle": {"line1": "1 40875U 15039B   25355.26295082 -.00000043  00000+0  00000+0 0  9992", "line2": "2 40875   0.0634   0.0067 0004262 271.0647 265.6794  1.00271099 37876"}}, "geometry": {"type": "Point", "coordinates": [-57.35290496534326, -0.0762922474183946]}}, {"type": "Feature", "properties": {"norad_id": 41310, "name": "EUTELSAT 9B", "group": "eutelsat", "lat": -0.07352148982206683, "lon": -40.34672047010197, "alt_km": 35772.10695224085, "timestamp": "2025-12-21T14:40:47.582173+00:00", "meta": {"OBJECT_NAME": "EUTELSAT 9B", "OBJECT_ID": "2016-005A", "EPOCH": "2025-12-21T02:58:07.934880", "MEAN_MOTION": 1.00272818, "ECCENTRICITY": 0.00044821, "INCLINATION": 0.0637, "RA_OF_ASC_NODE": 72.0406, "ARG_OF_PERICENTER": 203.606, "MEAN_ANOMALY": 227.8308, "EPHEMERIS_TYPE": 0, "CLASSIFICATION_TYPE": "U", "NORAD_CAT_ID": 41310, "ELEMENT_SET_NO": 999, "REV_AT_EPOCH": 3633, "BSTAR": 0, "MEAN_MOTION_DOT": 8.5e-07, "MEAN_MOTION_DDOT": 0}, "tle": {"line1": "1 41310U 16005A   25355.12370295  .00000085  00000+0  00000+0 0  9991", "line2": "2 41310   0.0637  72.0406 0004482 203.6060 227.8308  1.00272818 36335"}}, "geometry": {"type": "Point", "coordinates": [-40.34672047010197, -0.07352148982206683]}}, {"type": "Feature", "properties": {"norad_id": 41382, "name": "EUTELSAT 65 WEST A", "group": "eutelsat", "lat": -0.07555927921613163, "lon": -114.58805079485249, "alt_km": 35777.544976700854, "timestamp": "2025-12-21T14:40:47.582185+00:00", "meta": {"OBJECT_NAME": "EUTELSAT 65 WEST A", "OBJECT_ID": "2016-014A", "EPOCH": "2025-12-21T06:02:25.503648", "MEAN_MOTION": 1.00273776, "ECCENTRICITY": 0.00021413, "INCLINATION": 0.0524, "RA_OF_ASC_NODE": 333.9556, "ARG_OF_PERICENTER": 299.2512, "MEAN_ANOMALY": 202.2758, "EPHEMERIS_TYPE": 0, "CLASSIFICATION_TYPE": "U", "NORAD_CAT_ID": 41382, "ELEMENT_SET_NO": 999, "REV_AT_EPOCH": 3575, "BSTAR": 0, "MEAN_MOTION_DOT": -2.53e-06, "MEAN_MOTION_DDOT": 0}, "tle": {"line1": "1 41382U 16014A   25355.25168407 -.00000253  00000+0  00000+0 0  9992", "line2": "2 41382   0.0524 333.9556 0002141 299.2512 202.2758  1.00273776 35752"}}, "geometry": {"type": "Point", "coordinates": [-114.58805079485249, -0.07555927921613163]}}, {"type": "Feature", "properties": {"norad_id": 41589, "name": "EUTELSAT 117 WEST B", "group": "eutelsat", "lat": 0.0031806745523240286, "lon": -166.3724178553118, "alt_km": 35787.10496014606, "timestamp": "2025-12-21T14:40:47.582196+00:00", "meta": {"OBJECT_NAME": "EUTELSAT 117 WEST B", "OBJECT_ID": "2016-038B", "EPOCH": "2025-12-21T04:32:38.609664", "MEAN_MOTION": 1.00270361, "ECCENTRICITY": 3.44e-05, "INCLINATION": 0.0136, "RA_OF_ASC_NODE": 151.844, "ARG_OF_PERICENTER": 158.1973, "MEAN_ANOMALY": 91.1465, "EPHEMERIS_TYPE": 0, "CLASSIFICATION_TYPE": "U", "NORAD_CAT_ID": 41589, "ELEMENT_SET_NO": 999, "REV_AT_EPOCH": 3487, "BSTAR": 0, "MEAN_MOTION_DOT": 1.1e-07, "MEAN_MOTION_DDOT": 0}, "tle": {"line1": "1 41589U 16038B   25355.18933576  .00000011  00000+0  00000+0 0  9997", "line2": "2 41589   0.0136 151.8440 0000344 158.1973  91.1465  1.00270361 34875"}}, "geometry": {"type": "Point", "coordinates": [-166.3724178553118, 0.0031806745523240286]}}]}